[
    {
        "location_code": 100101,
        "city": "กรุงเทพมหานคร",
        "kate": "เขตพระนคร",
        "kwang": "พระบรมมหาราชวัง",
        "post_code": 10200
    },
    {
        "location_code": 101801,
        "city": "กรุงเทพมหานคร",
        "kate": "เขตคลองสาน",
        "kwang": "สมเด็จเจ้าพระยา",
        "post_code": 10600
    },
    {
        "location_code": 101802,
        "city": "กรุงเทพมหานคร",
        "kate": "เขตคลองสาน",
        "kwang": "คลองสาน",
        "post_code": 10600
    },
    {
        "location_code": 101803,
        "city": "กรุงเทพมหานคร",
        "kate": "เขตคลองสาน",
        "kwang": "บางลำภูล่าง",
        "post_code": 10600
    },
    {
        "location_code": 101804,
        "city": "กรุงเทพมหานคร",
        "kate": "เขตคลองสาน",
        "kwang": "คลองต้นไทร",
        "post_code": 10600
    },
    {
        "location_code": 110101,
        "city": "สมุทรปราการ",
        "kate": "อำเภอเมืองสมุทรปราการ",
        "kwang": "ปากน้ำ",
        "post_code": 10270
    },
    {
        "location_code": 110102,
        "city": "สมุทรปราการ",
        "kate": "อำเภอเมืองสมุทรปราการ",
        "kwang": "สำโรงเหนือ",
        "post_code": 10270
    },
    {
        "location_code": 110103,
        "city": "สมุทรปราการ",
        "kate": "อำเภอเมืองสมุทรปราการ",
        "kwang": "บางเมือง",
        "post_code": 10270
    },
    {
        "location_code": 110104,
        "city": "สมุทรปราการ",
        "kate": "อำเภอเมืองสมุทรปราการ",
        "kwang": "ท้ายบ้าน",
        "post_code": 10280
    },
    {
        "location_code": 110108,
        "city": "สมุทรปราการ",
        "kate": "อำเภอเมืองสมุทรปราการ",
        "kwang": "บางปูใหม่",
        "post_code": 10280
    },
    {
        "location_code": 120101,
        "city": "นนทบุรี",
        "kate": "อำเภอเมืองนนทบุรี",
        "kwang": "สวนใหญ่",
        "post_code": 11000
    },
    {
        "location_code": 120102,
        "city": "นนทบุรี",
        "kate": "อำเภอเมืองนนทบุรี",
        "kwang": "ตลาดขวัญ",
        "post_code": 11000
    },
    {
        "location_code": 120103,
        "city": "นนทบุรี",
        "kate": "อำเภอเมืองนนทบุรี",
        "kwang": "บางเขน",
        "post_code": 11000
    },
    {
        "location_code": 120104,
        "city": "นนทบุรี",
        "kate": "อำเภอเมืองนนทบุรี",
        "kwang": "บางกระสอ",
        "post_code": 11000
    },
    {
        "location_code": 120105,
        "city": "นนทบุรี",
        "kate": "อำเภอเมืองนนทบุรี",
        "kwang": "ท่าทราย",
        "post_code": 11000
    },
    {
        "location_code": 130101,
        "city": "ปทุมธานี",
        "kate": "อำเภอเมืองปทุมธานี",
        "kwang": "บางปรอก",
        "post_code": 12000
    },
    {
        "location_code": 130102,
        "city": "ปทุมธานี",
        "kate": "อำเภอเมืองปทุมธานี",
        "kwang": "บ้านใหม่",
        "post_code": 12000
    },
    {
        "location_code": 130103,
        "city": "ปทุมธานี",
        "kate": "อำเภอเมืองปทุมธานี",
        "kwang": "บ้านกลาง",
        "post_code": 12000
    },
    {
        "location_code": 130104,
        "city": "ปทุมธานี",
        "kate": "อำเภอเมืองปทุมธานี",
        "kwang": "บ้านฉาง",
        "post_code": 12000
    },
    {
        "location_code": 130105,
        "city": "ปทุมธานี",
        "kate": "อำเภอเมืองปทุมธานี",
        "kwang": "บ้านกระแชง",
        "post_code": 12000
    },
    {
        "location_code": 140101,
        "city": "พระนครศรีอยุธยา",
        "kate": "อำเภอพระนครศรีอยุธยา",
        "kwang": "ประตูชัย",
        "post_code": 13000
    },
    {
        "location_code": 140102,
        "city": "พระนครศรีอยุธยา",
        "kate": "อำเภอพระนครศรีอยุธยา",
        "kwang": "กะมัง",
        "post_code": 13000
    },
    {
        "location_code": 140103,
        "city": "พระนครศรีอยุธยา",
        "kate": "อำเภอพระนครศรีอยุธยา",
        "kwang": "หอรัตนไชย",
        "post_code": 13000
    },
    {
        "location_code": 140104,
        "city": "พระนครศรีอยุธยา",
        "kate": "อำเภอพระนครศรีอยุธยา",
        "kwang": "หัวรอ",
        "post_code": 13000
    },
    {
        "location_code": 140105,
        "city": "พระนครศรีอยุธยา",
        "kate": "อำเภอพระนครศรีอยุธยา",
        "kwang": "ท่าวาสุกรี",
        "post_code": 13000
    },
    {
        "location_code": 150101,
        "city": "อ่างทอง",
        "kate": "อำเภอเมืองอ่างทอง",
        "kwang": "ตลาดหลวง",
        "post_code": 14000
    },
    {
        "location_code": 150102,
        "city": "อ่างทอง",
        "kate": "อำเภอเมืองอ่างทอง",
        "kwang": "บางแก้ว",
        "post_code": 14000
    },
    {
        "location_code": 150103,
        "city": "อ่างทอง",
        "kate": "อำเภอเมืองอ่างทอง",
        "kwang": "ศาลาแดง",
        "post_code": 14000
    },
    {
        "location_code": 150104,
        "city": "อ่างทอง",
        "kate": "อำเภอเมืองอ่างทอง",
        "kwang": "ป่างิ้ว",
        "post_code": 14000
    },
    {
        "location_code": 150105,
        "city": "อ่างทอง",
        "kate": "อำเภอเมืองอ่างทอง",
        "kwang": "บ้านแห",
        "post_code": 14000
    }
]
